{"fetched_at":"2026-03-29T16:36:15Z","count":15609,"tles":[{"name":"STARLINK-34599","line1":"1 64919U 25157R   26087.88508660  .00022014  00000+0  75304-3 0  9993","line2":"2 64919  53.1572 256.4302 0000917  89.1121 270.9985 15.30206436 39063","category":"Starlink"}]}