{
  "norad_id": 64919,
  "name": "STARLINK-34599",
  "history": [
    {
      "epoch": "2026-03-28T21:14:31.482240Z",
      "apogee_km": 475.82430337337246,
      "perigee_km": 474.5674021281775,
      "latitude_deg": 1.9973914269347384e-05,
      "longitude_deg": 111.49992180135663,
      "height_km": 476.0843636333169,
      "semi_major_axis_km": 6853.332852750775,
      "eccentricity": 9.17e-05,
      "inclination_deg": 53.1572,
      "raan_deg": 256.4302,
      "arg_perigee_deg": 89.1121,
      "mean_anomaly_deg": 270.9985,
      "mean_motion_rev_day": 15.30206436
    }
  ]
}